[{"OBJECT_NAME":"YAOGAN-36 04C","OBJECT_ID":"2022-171E","EPOCH":"2026-03-09T18:55:44.889600","MEAN_MOTION":15.29852307,"ECCENTRICITY":0.00066848,"INCLINATION":34.9797,"RA_OF_ASC_NODE":96.6578,"ARG_OF_PERICENTER":275.3761,"MEAN_ANOMALY":84.6192,"EPHEMERIS_TYPE":0,"CLASSIFICATION_TYPE":"U","NORAD_CAT_ID":54750,"ELEMENT_SET_NO":999,"REV_AT_EPOCH":18024,"BSTAR":0.00054591902,"MEAN_MOTION_DOT":0.00016196,"MEAN_MOTION_DDOT":0},{"OBJECT_NAME":"STARLINK-34893","OBJECT_ID":"2025-216U","EPOCH":"2026-03-09T21:33:06.139008","MEAN_MOTION":15.30220234,"ECCENTRICITY":0.00023667,"INCLINATION":53.1586,"RA_OF_ASC_NODE":332.0562,"ARG_OF_PERICENTER":140.6377,"MEAN_ANOMALY":219.4796,"EPHEMERIS_TYPE":0,"CLASSIFICATION_TYPE":"U","NORAD_CAT_ID":65752,"ELEMENT_SET_NO":999,"REV_AT_EPOCH":2654,"BSTAR":0.0012910107,"MEAN_MOTION_DOT":0.00038098,"MEAN_MOTION_DDOT":0}]
